KUIPER-00165            
1 65778U 25217S   26027.53182831  .00003294  00000+0  46077-3 0  9992
2 65778  51.8993 217.5999 0002553  84.2432 275.8822 14.79949673 18888
KUIPER-00166            
1 65779U 25217T   26027.91668981 -.01065344  00000+0 -10039+0 0  9992
2 65779  51.8904 204.2047 0002146 218.2518 123.1236 14.96501019  5685
KUIPER-00167            
1 65780U 25217U   26027.92629868  .00005129  00000+0  70049-3 0  9999
2 65780  51.8934 225.8364 0000702 107.9067 252.1972 14.79978604 18807
KUIPER-00168            
1 65781U 25217V   26027.91668981  .00028570  00000+0  34669-2 0  9990
2 65781  51.8988 208.4847 0000802  32.6302 130.7253 14.83335593  5906
KUIPER-00169            
1 65782U 25217W   26027.93969983  .00006002  00000+0  81463-3 0  9990
2 65782  51.9071 213.2996 0002352 296.4596  63.6124 14.79988217 18982
KUIPER-00170            
1 65783U 25217X   26027.93432552 -.00005131  00000+0 -64544-3 0  9993
2 65783  51.8967 218.3134 0004038 222.7166 137.3483 14.79866261 18918
KUIPER-00171            
1 65784U 25217Y   26027.83335647  .00303587  49122-4  62845-3 0  9999
2 65784  51.8441 179.0501 0005605 217.5328 207.0612 15.98641603  5884
KUIPER-00172            
1 65785U 25217Z   26027.84686882  .00029942  00000+0  14240-2 0  9993
2 65785  51.8807 206.0327 0004104 206.1042 153.9731 15.18934533 19074
KUIPER-00173            
1 65786U 25217AA  26027.89735832  .00003527  00000+0  46427-3 0  9993
2 65786  51.9000 213.3955 0001060 106.4243 253.6837 14.82358349 18970
KUIPER-00174            
1 65787U 25217AB  26027.91668981  .00021223  00000+0  25698-2 0  9996
2 65787  51.9021 208.5144 0000179 135.9998 200.4040 14.83584811  5534
KUIPER-00176            
1 65788U 25217AC  26027.89527807  .00003804  00000+0  52776-3 0  9998
2 65788  51.8973 223.4961 0000982 139.7255 220.3780 14.79928204 18835
KUIPER-00101            
1 65947U 25228A   26027.16442068 -.00008401  00000+0 -10747-2 0  9993
2 65947  51.8981 184.2101 0000446 162.9938 197.1040 14.79920628 17080
KUIPER-00113            
1 65948U 25228B   26027.81132853  .00005230  00000+0  71487-3 0  9998
2 65948  51.8961 176.3653 0000653  79.0657 281.0378 14.79908110 17246
KUIPER-00117            
1 65949U 25228C   26027.84244879 -.00001242  00000+0 -13417-3 0  9994
2 65949  51.8974 178.7316 0000377 101.3069 258.7936 14.79882795 17210
KUIPER-00121            
1 65950U 25228D   26027.81410814  .00005119  00000+0  69962-3 0  9998
2 65950  51.8981 173.8457 0001288 108.4584 251.6519 14.79954729 17287
KUIPER-00122            
1 65951U 25228E   26027.87076153  .00001965  00000+0  28673-3 0  9998
2 65951  51.8972 183.5766 0000586 174.1934 185.9036 14.79933794 17156
KUIPER-00123            
1 65952U 25228F   26027.83702563  .00005370  00000+0  73308-3 0  9995
2 65952  51.8965 183.7494 0000357  80.3791 279.7212 14.79920072 17146
KUIPER-00124            
1 65953U 25228G   26027.77758284 -.00000478  00000+0 -33771-4 0  9997
2 65953  51.8968 176.4981 0000019 338.7626  21.3336 14.79884285 17246
KUIPER-00125            
1 65954U 25228H   26027.91668981  .00001740  00000+0  18861-3 0  9991
2 65954  51.8952 161.4322 0002322 159.1565 218.5712 14.93164553  5452
KUIPER-00126            
1 65955U 25228J   26026.18525844  .00005180  00000+0  70787-3 0  9997
2 65955  51.8967 188.5627 0000419 100.8130 259.2880 14.79933956 16931
KUIPER-00127            
1 65956U 25228K   26027.82873563  .00008781  00000+0  75065-3 0  9998
2 65956  51.8939 174.0241 0004993 216.9132 143.1495 14.98302135 17287
KUIPER-00128            
1 65957U 25228L   26027.78024875  .00001992  00000+0  29002-3 0  9995
2 65957  51.8945 174.0151 0001571  82.2476 277.8665 14.79976656 17276
KUIPER-00129            
1 65958U 25228M   26027.75200783  .00019987  00000+0  26391-2 0  9997
2 65958  51.8991 169.1296 0001522 186.7767 173.3175 14.79995008 17348
KUIPER-00130            
1 65959U 25228N   26026.77000075  .00001222  00000+0  18921-3 0  9995
2 65959  51.8990 175.9671 0000700  72.0625 288.0413 14.79945346  7457
KUIPER-00134            
1 65960U 25228P   26027.51584127  .00063793  00000+0  17197-2 0  9999
2 65960  51.8755 159.6065 0006909 176.2832 183.8207 15.37189475 17450
KUIPER-00135            
1 65961U 25228Q   26027.81671840 -.00000519  00000+0 -38991-4 0  9998
2 65961  51.9052 171.4025 0000418 116.6080 243.4925 14.79968154 17311
KUIPER-00136            
1 65962U 25228R   26027.91668981  .00013987  00000+0  18610-2 0  9997
2 65962  51.8982 168.4438 0000471 263.3021  74.7701 14.79906689  5343
KUIPER-00137            
1 65963U 25228S   26027.00002315 -.00022007  00000+0 -26181-2 0  9998
2 65963  51.9005 170.0216 0002478 204.1750 236.4485 14.83700000  5424
KUIPER-00138            
1 65964U 25228T   26027.91668981 -.00761648  00000+0 -89785-1 0  9995
2 65964  51.9223 163.6196 0007378 195.5927 178.8932 14.87099330  4869
KUIPER-00140            
1 65965U 25228U   26027.91668981 -.00003350  00000+0 -38361-3 0  9991
2 65965  51.8971 166.0366 0001135  28.4430  85.0940 14.82695811  5739
KUIPER-00141            
1 65966U 25228V   26027.91668981 -.00002168  00000+0 -17403-3 0  9992
2 65966  51.8997 161.6561 0002445 300.8954 213.2113 14.94836562  4019
KUIPER-00146            
1 65967U 25228W   26027.91668981 -.00359227  00000+0 -42850-1 0  9996
2 65967  51.9519 163.6921 0001590 264.2570 303.2201 14.86015367  5922
KUIPER-00149            
1 65968U 25228X   26027.91668981 -.01765655  00000+0 -12720+0 0  9995
2 65968  51.8911 159.8184 0002837 169.9584 282.3040 15.07187091  4382
KUIPER-00154            
1 65969U 25228Y   26027.91668981 -.01182163  00000+0 -67049-1 0  9999
2 65969  51.8842 158.6325 0006411 174.8332 139.2527 15.15466357  5158
KUIPER-00157            
1 65970U 25228Z   26027.91668981 -.00418320  00000+0 -31327-1 0  9997
2 65970  51.9045 160.0996 0002502 232.2959   3.7583 15.04466719  5784
KUIPER-00144            
1 67133U 25301A   26027.64257582  .00029643  00000+0  81752-3 0  9996
2 67133  51.8701 263.6387 0006228 226.5155 133.5314 15.36843183  7428
KUIPER-00164            
1 67134U 25301B   26027.36644935  .00052071  00000+0  14054-2 0  9999
2 67134  51.8662 264.7960 0002090 181.3469 178.7512 15.37262275  7567
KUIPER-00175            
1 67135U 25301C   26027.67731737  .00040920  00000+0  10919-2 0  9997
2 67135  51.8699 263.1330 0002976 139.6275 220.4933 15.37721159  7503
KUIPER-00179            
1 67136U 25301D   26027.62318046  .00061663  00000+0  16621-2 0  9990
2 67136  51.8681 263.5233 0001972 124.4271 235.6902 15.37226708  7609
KUIPER-00181            
1 67137U 25301E   26027.91668981 -.01008895  00000+0 -39563-1 0  9999
2 67137  51.8688 262.8963 0011692 257.3685 228.9756 15.27860273  5468
KUIPER-00183            
1 67138U 25301F   26027.67938481  .00039263  00000+0  11195-2 0  9990
2 67138  51.8602 263.8454 0012125 254.6189 105.3457 15.35614227  7599
KUIPER-00184            
1 67139U 25301G   26027.93073612  .00036513  00000+0  10342-2 0  9994
2 67139  51.8630 262.5382 0009987 253.9333 106.0553 15.35877453  7746
KUIPER-00186            
1 67140U 25301H   26027.91668981 -.01103441  00000+0 -44600-1 0  9994
2 67140  51.8718 262.7666 0006708 238.5982 344.2347 15.27198792  5769
KUIPER-00187            
1 67141U 25301J   26027.91668981 -.01067020  00000+0 -62980-1 0  9998
2 67141  51.8851 263.5669 0008173 257.5769 233.8237 15.13753133  5056
KUIPER-00188            
1 67142U 25301K   26027.72055946  .00042355  00000+0  11774-2 0  9996
2 67142  51.8697 263.4049 0008322 251.3207 108.6876 15.36408768  7439
KUIPER-00191            
1 67143U 25301L   26027.64930411  .00047047  00000+0  12937-2 0  9992
2 67143  51.8669 263.6723 0006760 237.7569 122.2763 15.36710722  7458
KUIPER-00196            
1 67144U 25301M   26027.36903571  .00019775  00000+0  54434-3 0  9995
2 67144  51.8720 264.8135 0003483 195.1005 164.9878 15.37156099  7382
KUIPER-00204            
1 67145U 25301N   26027.64975052  .00036219  00000+0  14421-2 0  9993
2 67145  51.8834 265.1031 0004281 165.6902 194.4201 15.24895998  7510
KUIPER-00210            
1 67146U 25301P   26027.93804302  .00034205  00000+0  97891-3 0  9991
2 67146  51.8616 262.5739 0011488 262.7883  97.1797 15.35570936  7635
KUIPER-00221            
1 67147U 25301Q   26027.91668981 -.00522370  00000+0 -30151-1 0  9992
2 67147  51.8893 263.4605 0006075 205.0935  53.5864 15.14014876  5204
KUIPER-00232            
1 67148U 25301R   26027.67836378  .00051901  00000+0  13881-2 0  9990
2 67148  51.8738 263.1407 0003148 139.1447 220.9776 15.37543203  7438
KUIPER-00241            
1 67149U 25301S   26027.91668981 -.00409608  00000+0 -12915-1 0  9990
2 67149  51.8741 262.1631 0002383 204.4392 312.8673 15.34044165  5284
KUIPER-00245            
1 67150U 25301T   26027.91668981 -.00148779  00000+0 -10980-1 0  9991
2 67150  51.9063 264.9212 0010127 253.2674 269.4824 15.03506937  5628
KUIPER-00246            
1 67151U 25301U   26027.62986328  .00029205  00000+0  79489-3 0  9999
2 67151  51.8734 263.5624 0004156 224.5218 135.5435 15.37269843  7447
KUIPER-00247            
1 67152U 25301V   26027.03462425  .00046743  00000+0  13507-2 0  9996
2 67152  51.8608 267.0285 0011908 263.1228  96.8403 15.35117747  7327
KUIPER-00248            
1 67153U 25301W   26027.73226271  .00043639  00000+0  12404-2 0  9997
2 67153  51.8674 263.4733 0009952 244.7135 115.2820 15.35685666  7607
KUIPER-00249            
1 67154U 25301X   26027.91693606  .00037732  00000+0  10485-2 0  9992
2 67154  51.8631 262.4546 0009179 248.6686 111.3321 15.36467121  7469
KUIPER-00250            
1 67155U 25301Y   26026.40687479  .00032242  00000+0  88439-3 0  9993
2 67155  51.8706 269.6097 0007439 231.7298 128.3020 15.36961378  7267
KUIPER-00251            
1 67156U 25301Z   26027.92341844  .00039638  00000+0  11144-2 0  9999
2 67156  51.8674 262.4996 0010127 246.5490 113.4432 15.36071671  7650
